start=new Date('2023-05-12T00:00:00.000Z').valueOf();
sats=[{"CENTER_NAME":"EARTH","TIME_SYSTEM":"UTC","ARG_OF_PERICENTER":"269.6832","OBJECT_NAME":"STARLINK-5945","TLE_LINE1":"1 56018U 23042AJ  23131.91667824  .00040555  00000-0  73565-3 0  9992","OBJECT_ID":"2023-042AJ","ECCENTRICITY":"0.00018660","REV_AT_EPOCH":"130","GP_ID":"231639519","FILE":"3905576","DECAY_DATE":null,"MEAN_ANOMALY":"75.3627","RCS_SIZE":"LARGE","EPHEMERIS_TYPE":"0","SEMIMAJOR_AXIS":"6798.059","RA_OF_ASC_NODE":"264.4312","OBJECT_TYPE":"PAYLOAD","COUNTRY_CODE":"US","INCLINATION":"42.9983","REF_FRAME":"TEME","APOAPSIS":"421.192","TLE_LINE2":"2 56018  42.9983 264.4312 0001866 269.6832  75.3627 15.48907259  1300","MEAN_MOTION":"15.48907259","EPOCH":"2023-05-11T22:00:00.999936","BSTAR":"0.00073565000000","MEAN_MOTION_DOT":"0.00040555","ELEMENT_SET_NO":"999","NORAD_CAT_ID":"56018","CLASSIFICATION_TYPE":"U","SITE":"AFETR","PERIAPSIS":"418.655","MEAN_MOTION_DDOT":"0.0000000000000","LAUNCH_DATE":"2023-03-24","PERIOD":"92.969","MEAN_ELEMENT_THEORY":"SGP4"},{"ECCENTRICITY":"0.00016290","OBJECT_ID":"2023-042AK","REV_AT_EPOCH":"130","RA_OF_ASC_NODE":"264.4395","EPHEMERIS_TYPE":"0","SEMIMAJOR_AXIS":"6798.044","OBJECT_TYPE":"PAYLOAD","COUNTRY_CODE":"US","INCLINATION":"42.9989","GP_ID":"231639769","FILE":"3905576","MEAN_ANOMALY":"69.5625","DECAY_DATE":null,"RCS_SIZE":"MEDIUM","TIME_SYSTEM":"UTC","CENTER_NAME":"EARTH","TLE_LINE1":"1 56019U 23042AK  23131.91667824  .00034598  00000-0  62885-3 0  9996","ARG_OF_PERICENTER":"272.1228","OBJECT_NAME":"STARLINK-5949","NORAD_CAT_ID":"56019","ELEMENT_SET_NO":"999","LAUNCH_DATE":"2023-03-24","PERIOD":"92.968","MEAN_ELEMENT_THEORY":"SGP4","CLASSIFICATION_TYPE":"U","SITE":"AFETR","PERIAPSIS":"418.802","MEAN_MOTION_DDOT":"0.0000000000000","TLE_LINE2":"2 56019  42.9989 264.4395 0001629 272.1228  69.5625 15.48912135  1305","MEAN_MOTION":"15.48912135","REF_FRAME":"TEME","APOAPSIS":"421.017","BSTAR":"0.00062885000000","MEAN_MOTION_DOT":"0.00034598","EPOCH":"2023-05-11T22:00:00.999936"},{"NORAD_CAT_ID":"56020","ELEMENT_SET_NO":"999","LAUNCH_DATE":"2023-03-24","PERIOD":"92.968","MEAN_ELEMENT_THEORY":"SGP4","CLASSIFICATION_TYPE":"U","PERIAPSIS":"418.667","SITE":"AFETR","MEAN_MOTION_DDOT":"0.0000000000000","TLE_LINE2":"2 56020  42.9983 264.4332 0001822 276.6183  67.5914 15.48913263  1308","MEAN_MOTION":"15.48913263","APOAPSIS":"421.145","REF_FRAME":"TEME","BSTAR":"0.00064939000000","MEAN_MOTION_DOT":"0.00035746","EPOCH":"2023-05-11T22:00:00.999936","OBJECT_ID":"2023-042AL","ECCENTRICITY":"0.00018220","REV_AT_EPOCH":"130","SEMIMAJOR_AXIS":"6798.041","RA_OF_ASC_NODE":"264.4332","EPHEMERIS_TYPE":"0","OBJECT_TYPE":"PAYLOAD","COUNTRY_CODE":"US","INCLINATION":"42.9983","GP_ID":"231640521","FILE":"3905576","MEAN_ANOMALY":"67.5914","DECAY_DATE":null,"RCS_SIZE":"LARGE","TIME_SYSTEM":"UTC","CENTER_NAME":"EARTH","TLE_LINE1":"1 56020U 23042AL  23131.91667824  .00035746  00000-0  64939-3 0  9996","ARG_OF_PERICENTER":"276.6183","OBJECT_NAME":"STARLINK-5912"},{"COUNTRY_CODE":"US","INCLINATION":"42.9988","RA_OF_ASC_NODE":"264.4354","EPHEMERIS_TYPE":"0","SEMIMAJOR_AXIS":"6798.124","OBJECT_TYPE":"PAYLOAD","MEAN_ANOMALY":"59.4290","DECAY_DATE":null,"RCS_SIZE":"LARGE","GP_ID":"231640272","FILE":"3905576","REV_AT_EPOCH":"130","OBJECT_ID":"2023-042AM","ECCENTRICITY":"0.00017460","TLE_LINE1":"1 56021U 23042AM  23131.91667824  .00044417  00000-0  80536-3 0  9993","OBJECT_NAME":"STARLINK-5907","ARG_OF_PERICENTER":"283.8783","TIME_SYSTEM":"UTC","CENTER_NAME":"EARTH","MEAN_ELEMENT_THEORY":"SGP4","PERIOD":"92.970","LAUNCH_DATE":"2023-03-24","PERIAPSIS":"418.802","SITE":"AFETR","MEAN_MOTION_DDOT":"0.0000000000000","CLASSIFICATION_TYPE":"U","NORAD_CAT_ID":"56021","ELEMENT_SET_NO":"999","BSTAR":"0.00080536000000","MEAN_MOTION_DOT":"0.00044417","EPOCH":"2023-05-11T22:00:00.999936","TLE_LINE2":"2 56021  42.9988 264.4354 0001746 283.8783  59.4290 15.48884838  1301","MEAN_MOTION":"15.48884838","REF_FRAME":"TEME","APOAPSIS":"421.176"},{"GP_ID":"231639020","FILE":"3905576","MEAN_ANOMALY":"74.5650","DECAY_DATE":null,"RCS_SIZE":"LARGE","RA_OF_ASC_NODE":"264.4210","SEMIMAJOR_AXIS":"6798.047","EPHEMERIS_TYPE":"0","OBJECT_TYPE":"PAYLOAD","COUNTRY_CODE":"US","INCLINATION":"42.9983","ECCENTRICITY":"0.00016500","OBJECT_ID":"2023-042AN","REV_AT_EPOCH":"130","ARG_OF_PERICENTER":"274.7070","OBJECT_NAME":"STARLINK-5783","TLE_LINE1":"1 56022U 23042AN  23131.91667824  .00037205  00000-0  67558-3 0  9990","CENTER_NAME":"EARTH","TIME_SYSTEM":"UTC","CLASSIFICATION_TYPE":"U","SITE":"AFETR","PERIAPSIS":"418.791","MEAN_MOTION_DDOT":"0.0000000000000","PERIOD":"92.969","LAUNCH_DATE":"2023-03-24","MEAN_ELEMENT_THEORY":"SGP4","ELEMENT_SET_NO":"999","NORAD_CAT_ID":"56022","EPOCH":"2023-05-11T22:00:00.999936","BSTAR":"0.00067558000000","MEAN_MOTION_DOT":"0.00037205","APOAPSIS":"421.034","REF_FRAME":"TEME","TLE_LINE2":"2 56022  42.9983 264.4210 0001650 274.7070  74.5650 15.48911052  1307","MEAN_MOTION":"15.48911052"},{"ELEMENT_SET_NO":"999","NORAD_CAT_ID":"56023","MEAN_MOTION_DDOT":"0.0000000000000","SITE":"AFETR","PERIAPSIS":"418.548","CLASSIFICATION_TYPE":"U","MEAN_ELEMENT_THEORY":"SGP4","LAUNCH_DATE":"2023-03-24","PERIOD":"92.969","REF_FRAME":"TEME","APOAPSIS":"421.275","MEAN_MOTION":"15.48911458","TLE_LINE2":"2 56023  42.9981 264.4272 0002006 274.7958  71.9438 15.48911458  1300","EPOCH":"2023-05-11T22:00:00.999936","MEAN_MOTION_DOT":"0.00037372","BSTAR":"0.00067856000000","REV_AT_EPOCH":"130","OBJECT_ID":"2023-042AP","ECCENTRICITY":"0.00020060","RCS_SIZE":"LARGE","MEAN_ANOMALY":"71.9438","DECAY_DATE":null,"FILE":"3905576","GP_ID":"231639270","INCLINATION":"42.9981","COUNTRY_CODE":"US","OBJECT_TYPE":"PAYLOAD","EPHEMERIS_TYPE":"0","SEMIMAJOR_AXIS":"6798.046","RA_OF_ASC_NODE":"264.4272","CENTER_NAME":"EARTH","TIME_SYSTEM":"UTC","OBJECT_NAME":"STARLINK-5771","ARG_OF_PERICENTER":"274.7958","TLE_LINE1":"1 56023U 23042AP  23131.91667824  .00037372  00000-0  67856-3 0  9997"},{"EPOCH":"2023-05-11T22:00:00.999936","BSTAR":"0.00007156800000","MEAN_MOTION_DOT":"0.00003627","APOAPSIS":"420.996","REF_FRAME":"TEME","TLE_LINE2":"2 56024  42.9983 264.4154 0001648 274.7933  77.0149 15.48923481  1301","MEAN_MOTION":"15.48923481","PERIAPSIS":"418.756","SITE":"AFETR","MEAN_MOTION_DDOT":"0.0000000000000","CLASSIFICATION_TYPE":"U","MEAN_ELEMENT_THEORY":"SGP4","LAUNCH_DATE":"2023-03-24","PERIOD":"92.968","ELEMENT_SET_NO":"999","NORAD_CAT_ID":"56024","OBJECT_NAME":"STARLINK-5772","ARG_OF_PERICENTER":"274.7933","TLE_LINE1":"1 56024U 23042AQ  23131.91667824  .00003627  00000-0  71568-4 0  9990","CENTER_NAME":"EARTH","TIME_SYSTEM":"UTC","DECAY_DATE":null,"MEAN_ANOMALY":"77.0149","RCS_SIZE":"LARGE","GP_ID":"231640022","FILE":"3905576","COUNTRY_CODE":"US","INCLINATION":"42.9983","EPHEMERIS_TYPE":"0","SEMIMAJOR_AXIS":"6798.011","RA_OF_ASC_NODE":"264.4154","OBJECT_TYPE":"PAYLOAD","REV_AT_EPOCH":"130","OBJECT_ID":"2023-042AQ","ECCENTRICITY":"0.00016480"},{"TLE_LINE1":"1 56025U 23042AR  23131.91667824 -.00010981  00000-0 -19265-3 0  9999","OBJECT_NAME":"STARLINK-5766","ARG_OF_PERICENTER":"279.0075","TIME_SYSTEM":"UTC","CENTER_NAME":"EARTH","INCLINATION":"42.9983","COUNTRY_CODE":"US","OBJECT_TYPE":"PAYLOAD","EPHEMERIS_TYPE":"0","SEMIMAJOR_AXIS":"6797.995","RA_OF_ASC_NODE":"264.4251","RCS_SIZE":"LARGE","DECAY_DATE":null,"MEAN_ANOMALY":"68.5885","FILE":"3905576","GP_ID":"231640772","REV_AT_EPOCH":"130","ECCENTRICITY":"0.00020610","OBJECT_ID":"2023-042AR","MEAN_MOTION_DOT":"-0.00010981","BSTAR":"-0.00019265000000","EPOCH":"2023-05-11T22:00:00.999936","TLE_LINE2":"2 56025  42.9983 264.4251 0002061 279.0075  68.5885 15.48929018  1309","MEAN_MOTION":"15.48929018","APOAPSIS":"421.261","REF_FRAME":"TEME","MEAN_ELEMENT_THEORY":"SGP4","LAUNCH_DATE":"2023-03-24","PERIOD":"92.967","MEAN_MOTION_DDOT":"0.0000000000000","PERIAPSIS":"418.459","SITE":"AFETR","CLASSIFICATION_TYPE":"U","NORAD_CAT_ID":"56025","ELEMENT_SET_NO":"999"},{"TIME_SYSTEM":"UTC","CENTER_NAME":"EARTH","TLE_LINE1":"1 56026U 23042AS  23131.91667824  .00036352  00000-0  66032-3 0  9992","OBJECT_NAME":"STARLINK-5770","ARG_OF_PERICENTER":"271.4191","REV_AT_EPOCH":"130","OBJECT_ID":"2023-042AS","ECCENTRICITY":"0.00017010","INCLINATION":"42.9986","COUNTRY_CODE":"US","OBJECT_TYPE":"PAYLOAD","EPHEMERIS_TYPE":"0","SEMIMAJOR_AXIS":"6798.049","RA_OF_ASC_NODE":"264.4196","RCS_SIZE":"LARGE","DECAY_DATE":null,"MEAN_ANOMALY":"78.6960","FILE":"3905576","GP_ID":"231639520","TLE_LINE2":"2 56026  42.9986 264.4196 0001701 271.4191  78.6960 15.48910362  1304","MEAN_MOTION":"15.48910362","REF_FRAME":"TEME","APOAPSIS":"421.071","MEAN_MOTION_DOT":"0.00036352","BSTAR":"0.00066032000000","EPOCH":"2023-05-11T22:00:00.999936","NORAD_CAT_ID":"56026","ELEMENT_SET_NO":"999","MEAN_ELEMENT_THEORY":"SGP4","PERIOD":"92.969","LAUNCH_DATE":"2023-03-24","MEAN_MOTION_DDOT":"0.0000000000000","PERIAPSIS":"418.758","SITE":"AFETR","CLASSIFICATION_TYPE":"U"},{"NORAD_CAT_ID":"56027","ELEMENT_SET_NO":"999","LAUNCH_DATE":"2023-03-24","PERIOD":"92.968","MEAN_ELEMENT_THEORY":"SGP4","CLASSIFICATION_TYPE":"U","SITE":"AFETR","PERIAPSIS":"418.523","MEAN_MOTION_DDOT":"0.0000000000000","MEAN_MOTION":"15.48916671","TLE_LINE2":"2 56027  42.9986 264.4231 0002020 278.9368  69.5036 15.48916671  1300","APOAPSIS":"421.269","REF_FRAME":"TEME","BSTAR":"0.00024679000000","MEAN_MOTION_DOT":"0.00013339","EPOCH":"2023-05-11T22:00:00.999936","ECCENTRICITY":"0.00020200","OBJECT_ID":"2023-042AT","REV_AT_EPOCH":"130","SEMIMAJOR_AXIS":"6798.031","RA_OF_ASC_NODE":"264.4231","EPHEMERIS_TYPE":"0","OBJECT_TYPE":"PAYLOAD","COUNTRY_CODE":"US","INCLINATION":"42.9986","GP_ID":"231639770","FILE":"3905576","MEAN_ANOMALY":"69.5036","DECAY_DATE":null,"RCS_SIZE":"LARGE","TIME_SYSTEM":"UTC","CENTER_NAME":"EARTH","TLE_LINE1":"1 56027U 23042AT  23131.91667824  .00013339  00000-0  24679-3 0  9994","ARG_OF_PERICENTER":"278.9368","OBJECT_NAME":"STARLINK-5777"}];
